[{"OBJECT_NAME":"SAUDISAT 5B","OBJECT_ID":"2018-102C","EPOCH":"2026-03-09T22:59:17.457216","MEAN_MOTION":15.27248504,"ECCENTRICITY":0.00120577,"INCLINATION":97.3281,"RA_OF_ASC_NODE":135.3629,"ARG_OF_PERICENTER":124.0958,"MEAN_ANOMALY":236.1427,"EPHEMERIS_TYPE":0,"CLASSIFICATION_TYPE":"U","NORAD_CAT_ID":43833,"ELEMENT_SET_NO":999,"REV_AT_EPOCH":40064,"BSTAR":0.00024926623,"MEAN_MOTION_DOT":6.596e-5,"MEAN_MOTION_DDOT":0},{"OBJECT_NAME":"STARLINK-31535","OBJECT_ID":"2024-071W","EPOCH":"2026-03-08T04:06:55.284480","MEAN_MOTION":15.27545379,"ECCENTRICITY":0.00013683,"INCLINATION":43.0082,"RA_OF_ASC_NODE":356.0805,"ARG_OF_PERICENTER":284.5598,"MEAN_ANOMALY":75.5102,"EPHEMERIS_TYPE":0,"CLASSIFICATION_TYPE":"U","NORAD_CAT_ID":59504,"ELEMENT_SET_NO":999,"REV_AT_EPOCH":10788,"BSTAR":0.00042257741,"MEAN_MOTION_DOT":0.00011372,"MEAN_MOTION_DDOT":0}]
